[
    {
        "Altitude(m)": 605470.7412097815,
        "Argument of Periapsis(deg)": 0.0,
        "Eccentricity": 0.0,
        "Inclination(deg)": 60.0,
        "Latitude(deg)": 27.9880477345402,
        "Longitude(deg)": -122.7370236526652,
        "Mean Anomaly(deg)": 147.2727,
        "RAAN(deg)": 175.0,
        "Satellite Name": "Test1 779",
        "Satellite Number": 779,
        "Semi-Major Axis(m)": 6980739.136638005,
        "Time(s)": 0
    },
    {
        "Altitude(m)": 605395.7795900775,
        "Argument of Periapsis(deg)": 0.00010418945913296404,
        "Eccentricity": 0.0,
        "Inclination(deg)": 60.0,
        "Latitude(deg)": 27.473738076595914,
        "Longitude(deg)": -122.38383700952056,
        "Mean Anomaly(deg)": 147.8928061454618,
        "RAAN(deg)": 174.99957995086024,
        "Satellite Name": "Test1 779",
        "Satellite Number": 779,
        "Semi-Major Axis(m)": 6980739.136638005,
        "Time(s)": 10
    }
]